[{"OBJECT_NAME":"STARLINK-5446","OBJECT_ID":"2022-175AH","EPOCH":"2026-03-09T05:46:11.315136","MEAN_MOTION":15.08828996,"ECCENTRICITY":0.0001598,"INCLINATION":53.2197,"RA_OF_ASC_NODE":15.9031,"ARG_OF_PERICENTER":104.6325,"MEAN_ANOMALY":255.4845,"EPHEMERIS_TYPE":0,"CLASSIFICATION_TYPE":"U","NORAD_CAT_ID":54789,"ELEMENT_SET_NO":999,"REV_AT_EPOCH":18027,"BSTAR":-8.1088323e-5,"MEAN_MOTION_DOT":-1.578e-5,"MEAN_MOTION_DDOT":0},{"OBJECT_NAME":"DISKSAT B","OBJECT_ID":"2025-305B","EPOCH":"2026-03-09T19:33:34.074144","MEAN_MOTION":15.07484556,"ECCENTRICITY":0.00037827,"INCLINATION":45.0018,"RA_OF_ASC_NODE":250.2098,"ARG_OF_PERICENTER":311.4052,"MEAN_ANOMALY":48.6498,"EPHEMERIS_TYPE":0,"CLASSIFICATION_TYPE":"U","NORAD_CAT_ID":67220,"ELEMENT_SET_NO":999,"REV_AT_EPOCH":1231,"BSTAR":0.00082400752,"MEAN_MOTION_DOT":0.00012481,"MEAN_MOTION_DDOT":0}]
