STARLINK-5446           
1 54789U 22175AH  26068.24040874 -.00001578  00000+0 -81088-4 0  9992
2 54789  53.2197  15.9031 0001598 104.6325 255.4845 15.08828996180272
DISKSAT B               
1 67220U 25305B   26068.81497770  .00012481  00000+0  82401-3 0  9990
2 67220  45.0018 250.2098 0003783 311.4052  48.6498 15.07484556 12311
